141P-E/Machholz,e,12.8152,246.1856,149.2667,3.012914,0.1884620,0.75023267,359.9529,09/19.0/1994,2000,g  9.0,4.0
# From MPEC 2015-R12
141P-F/Machholz,e,12.7898,246.1881,149.2374,3.010224,0.1887147,0.75000946,359.9630,09/19.0/1994,2000,g  9.0,4.0
# From MPEC 2015-R12
141P-G/Machholz,e,12.8259,246.3146,149.0784,3.005818,0.1891298,0.74964304,359.9802,09/19.0/1994,2000,g  9.0,4.0
# From MPC186636
141P-H/Machholz,e,14.0169,241.8501,153.6205,3.045794,0.1854186,0.73459453,331.6719,10/31.0/2025,2000,g 18.5,4.0
# From MPEC 2022-SU8
141P-I/Machholz,e,13.9422,153.4516,241.9452,3.047440,0.1852684,0.73509492,329.5006,10/31.0/2025,2000,g 17.5,4.0
# From MPEC 2024-C04
142P/Ge-Wang,e,12.2434,175.9622,174.0492,5.003584,0.0880607,0.49579821,143.9122,10/31.0/2025,2000,g  8.5,6.0
# From MPEC 2025-UQ3
143P/Kowal-Mrkos,e,5.4053,242.1893,304.6012,4.764712,0.0947652,0.37958005,319.9770,10/31.0/2025,2000,g 13.5,2.0
# From MPEC 2024-YC7
144P/Kushida,e,3.9314,242.9245,216.3732,3.834406,0.1312674,0.63495272,84.5560,10/31.0/2025,2000,g  8.5,8.0
# From MPEC 2025-UQ3
145P/Shoemaker-Levy,e,11.2782,26.7669,10.4178,4.129471,0.1174525,0.54238060,349.0850,10/31.0/2025,2000,g 13.5,4.0
# From MPC184418
146P/Shoemaker-LINEAR,e,23.1168,53.3385,317.0261,4.023378,0.1221287,0.64758798,55.1543,10/31.0/2025,2000,g 15.0,4.0
# From MPEC 2024-UQ8
147P/Kushida-Muramatsu,e,2.3115,91.6673,348.6389,4.010221,0.1227303,0.21171918,85.1025,10/31.0/2025,2000,g 14.0,4.0
# From MPEC 2024-JU4
148P/Anderson-LINEAR,e,3.6588,89.1951,8.0910,3.620220,0.1430875,0.55040176,176.6446,10/31.0/2025,2000,g 16.0,2.0
# From MPEC 2023-J29
149P/Mueller,e,34.2442,143.7276,30.1473,4.132946,0.1173044,0.32454530,311.7797,10/31.0/2025,2000,g  8.0,8.0
# From MPEC 2024-NE4
150P/LONEOS,e,18.5483,272.0554,246.1237,3.872105,0.1293550,0.54930754,77.2780,10/31.0/2025,2000,g 13.5,4.0
# From MPEC 2022-K19
151P/Helin,e,4.7249,143.1109,216.1524,5.767367,0.0711603,0.57232647,261.2850,10/31.0/2025,2000,g 10.0,6.0
# From MPC182888
152P/Helin-Lawrence,e,9.8796,91.7762,164.4157,4.486193,0.1037259,0.30658636,143.9125,10/31.0/2025,2000,g 11.5,4.0
# From MPC 46101
153P/Ikeya-Zhang,e,28.5056,93.8083,34.2019,50.53948,0.0027432,0.99020569,0.0000,03/14.7838/2002,2000,g  7.0,4.0
# From MPC184418
154P/Brewington,e,17.6396,342.9948,47.9182,4.793972,0.0938990,0.67619101,47.4039,10/31.0/2025,2000,g  2.5,12.0
# From MPEC 2022-YN2
155P/Shoemaker,e,6.4109,97.1568,14.5393,6.572344,0.0584957,0.72773645,127.1781,10/31.0/2025,2000,g 10.0,4.8
# From MPEC 2023-J29
156P/Russell-LINEAR,e,17.2582,35.3289,0.5311,3.462622,0.1529665,0.61477549,276.3931,10/31.0/2025,2000,g 15.5,2.0
# From MPEC 2024-D33
157P/Tritton,e,12.4252,287.4955,155.1911,3.548210,0.1474654,0.55674777,169.1042,10/31.0/2025,2000,g 10.0,4.0
# From MPEC 2022-VC5
157P-B/Tritton,e,12.4262,153.8706,287.2287,3.102745,0.1803371,0.49986702,207.1079,10/31.0/2025,2000,g 15.7,4.0
# From MPC182888
158P/Kowal-LINEAR,e,7.4836,124.2244,232.3868,5.716059,0.0721205,0.11589768,81.0635,10/31.0/2025,2000,g  9.0,4.0
# From MPEC 2024-DC6
159P/LONEOS,e,23.4797,54.9378,4.7470,5.855767,0.0695550,0.38239112,188.8159,10/31.0/2025,2000,g 10.0,4.0
# From MPEC 2022-K19
160P/LINEAR,e,15.5936,333.3415,12.7713,3.780216,0.1341001,0.52490835,289.8320,10/31.0/2025,2000,g 15.5,2.0
# From MPC 75721
161P/Hartley-IRAS,e,95.8194,1.5050,47.0638,7.717943,0.0459676,0.83587948,341.9377,10/31.0/2025,2000,g  8.5,6.0
# From MPC186636
162P/SidingSpring,e,27.5520,30.8713,357.2452,3.091548,0.1813177,0.58289011,323.9470,10/31.0/2025,2000,g 12.0,4.0
# From MPEC 2021-S45
163P/NEAT,e,12.7211,102.0720,349.6585,3.760296,0.1351671,0.45349183,307.4262,10/31.0/2025,2000,g 14.5,4.0
# From MPEC 2025-UQ3
164P/Christensen,e,16.2765,88.2681,325.9372,3.652684,0.1411841,0.54145121,22.1120,10/31.0/2025,2000,g 11.0,4.0
# From MPC 75721
165P/LINEAR,e,15.9118,0.6370,125.9295,17.81521,0.0131074,0.61947185,121.4491,10/31.0/2025,2000,g 11.5,2.0
# From MPC 75722
166P/NEAT,e,15.3756,64.4473,321.8723,13.84753,0.0191269,0.38234046,163.5486,10/31.0/2025,2000,g  5.5,4.0
# From MPEC 2025-UQ3
167P/CINEOS,e,19.0728,295.8432,344.3478,16.24715,0.0150501,0.26785206,135.2977,10/31.0/2025,2000,g  9.5,2.0
# From MPEC 2023-J29
168P/Hergenrother,e,21.5944,355.3814,15.1048,3.586559,0.1451066,0.62121347,329.9251,10/31.0/2025,2000,g 15.5,4.0
# From MPC184418
169P/NEAT,e,11.2854,176.0464,218.1313,2.603642,0.2346022,0.76797376,283.6681,10/31.0/2025,2000,g 16.0,2.0
# From MPC184418
170P/Christensen,e,10.1334,142.6353,224.6259,4.191840,0.1148410,0.30538703,106.7716,10/31.0/2025,2000,g 12.0,4.0
# From MPEC 2025-UQ3
171P/Spahr,e,21.9550,101.6940,347.0743,3.553591,0.1471305,0.50292124,5.2921,10/31.0/2025,2000,g 13.5,4.0
# From MPC185664
172P/Yeung,e,11.2221,30.8811,208.8730,4.224385,0.1135165,0.20504639,359.7291,10/31.0/2025,2000,g 13.0,4.0
# From MPEC 2023-N01
173P/Mueller,e,16.4940,100.3451,29.3297,5.716514,0.0721119,0.26244247,101.8727,10/31.0/2025,2000,g  7.5,4.0
# From MPC114608
175P/Hergenrother,e,4.9297,109.8044,74.5720,3.692086,0.1389301,0.37528501,317.3496,10/31.0/2025,2000,g 14.0,4.0
# From MPEC 2020-L06
177P/Barnard,e,31.0038,271.8567,60.7796,24.50384,0.0081256,0.95408323,56.9116,10/31.0/2025,2000,g 15.0,4.0
# From MPEC 2024-R10
178P/Hug-Bell,e,11.0929,102.7837,297.9670,3.632688,0.1423515,0.48219462,274.8038,10/31.0/2025,2000,g 13.5,4.0
# From MPEC 2024-EF7
179P/Jedicke,e,19.8893,115.5054,297.2425,5.937719,0.0681200,0.30524167,85.0301,10/31.0/2025,2000,g  2.5,8.0
# From MPEC 2024-F34
180P/NEAT,e,16.8613,84.5567,94.5939,3.867447,0.1295888,0.35396863,109.0836,10/31.0/2025,2000,g 11.0,4.0
# From MPC 89012
181P/Shoemaker-Levy,e,17.4704,35.4471,336.2865,3.879562,0.1289823,0.69961472,179.5387,10/31.0/2025,2000,g 11.5,4.0
# From MPEC 2024-UQ8
182P/LONEOS,e,16.2301,72.4474,54.2236,2.948449,0.1946766,0.66403153,246.6282,10/31.0/2025,2000,g 18.0,4.0
# From MPEC 2024-VJ2
183P/Korlevic-Juric,e,18.7186,3.4118,162.1008,4.714667,0.0962781,0.10300602,294.5969,10/31.0/2025,2000,g 12.5,2.0
# From MPEC 2020-W26
184P/Lovas,e,4.5692,173.2623,186.5559,3.801329,0.1329845,0.54963046,243.6459,10/31.0/2025,2000,g 13.5,4.0
# From MPEC 2024-F91
185P/Petriew,e,14.0070,214.1242,181.9238,3.099987,0.1805778,0.69927848,151.9166,10/31.0/2025,2000,g 15.0,4.0
# From MPEC 2022-X67
186P/Garradd,e,28.6873,325.7875,268.1173,4.860452,0.0919791,0.12337105,232.1014,10/31.0/2025,2000,g  7.5,4.0
# From MPEC 2020-SI8
187P/LINEAR,e,13.6692,109.8481,131.9153,4.546989,0.1016525,0.15652046,275.8952,10/31.0/2025,2000,g  9.0,4.0
# From MPEC 2025-UQ3
188P/LINEAR-Mueller,e,10.5256,358.9109,26.8458,4.364006,0.1081125,0.41656997,342.2360,10/31.0/2025,2000,g 11.5,4.0
# From MPEC 2022-QD9
189P/NEAT,e,20.1217,281.6867,16.1938,2.938510,0.1956651,0.59141996,226.5665,10/31.0/2025,2000,g 19.0,4.0
# From MPEC 2025-UQ3
190P/Mueller,e,2.1762,335.4305,50.5490,4.231560,0.1132279,0.52304964,35.1978,10/31.0/2025,2000,g 13.0,4.0
# From MPEC 2024-TD8
191P/McNaught,e,8.8396,98.1777,284.2645,3.641263,0.1418489,0.38496461,239.1679,10/31.0/2025,2000,g 13.0,4.0
# From MPC182889
192P/Shoemaker-Levy,e,24.5768,51.5475,313.0250,6.448091,0.0601946,0.77330649,31.5748,10/31.0/2025,2000,g 15.0,4.0
# From MPEC 2024-R10
193P/LINEAR-NEAT,e,10.6779,335.1832,8.1019,3.579997,0.1455057,0.39248218,222.5773,10/31.0/2025,2000,g 14.0,4.0
# From MPEC 2024-GJ3
194P/LINEAR,e,11.8031,349.5005,128.6427,4.123548,0.1177057,0.56342066,74.6995,10/31.0/2025,2000,g 16.0,4.0
# From MPEC 2025-UQ3
195P/Hill,e,36.4151,243.0905,250.6482,6.441079,0.0602929,0.31058317,5.1876,10/31.0/2025,2000,g  8.5,4.0
# From MPEC 2024-GJ3
196P/Tichy,e,19.2918,24.1255,12.1470,3.806806,0.1326976,0.42734657,145.6989,10/31.0/2025,2000,g 13.5,4.0
# From MPEC 2023-UR6
197P/LINEAR,e,25.2166,66.1376,189.9871,2.910636,0.1984825,0.61768836,210.7798,10/31.0/2025,2000,g 16.5,2.0
# From MPEC 2024-VJ2
198P/ODAS,e,1.3399,358.4638,69.0551,3.593593,0.1446808,0.44490695,3.4566,10/31.0/2025,2000,g 12.5,4.0
# From MPEC 2024-Q20
199P/Shoemaker,e,24.9395,92.3429,191.7486,5.871833,0.0692697,0.50423953,56.5120,10/31.0/2025,2000,g 10.0,4.0
# From MPEC 2022-C56
200P/Larsen,e,12.0940,234.8142,134.3727,4.954341,0.0893769,0.33089137,204.4154,10/31.0/2025,2000,g  9.0,4.0
# From MPC 93588
201P/LONEOS,e,5.7362,41.5174,19.8155,3.354495,0.1604218,0.63745630,259.3797,10/31.0/2025,2000,g 14.0,4.0
# From MPC182889
202P/Scotti,e,2.1417,177.3003,274.5167,4.099311,0.1187512,0.25100681,63.1339,10/31.0/2025,2000,g 13.5,4.0
# From MPEC 2025-A40
203P/Korlevic,e,2.9762,290.2201,154.9621,4.668366,0.0977140,0.31637726,201.5834,10/31.0/2025,2000,g 14.5,2.0
# From MPEC 2024-JU4
204P/LINEAR-NEAT,e,6.5983,108.4722,356.7409,3.584301,0.1452437,0.48831144,156.6543,10/31.0/2025,2000,g 14.0,4.0
# From MPEC 2023_O39
205P/Giacobini,e,15.2997,179.6245,154.1409,3.543314,0.1477711,0.56714208,205.0725,10/31.0/2025,2000,g 13.0,4.0
# From MPC 75725
206P/Barnard-Boattini,e,33.6122,202.3350,189.5816,3.491540,0.1510701,0.55103767,256.9561,10/31.0/2025,2000,g 19.0,4.0
# From MPEC 2024-NE4
207P/NEAT,e,10.1975,198.1239,273.0489,3.886696,0.1286273,0.75854475,82.0750,10/31.0/2025,2000,g 16.0,4.0
# From MPEC 2025-UQ3
208P/McMillan,e,4.4078,36.2989,310.9459,4.046246,0.1210949,0.37451702,52.3446,10/31.0/2025,2000,g 12.5,4.0
# From MPEC 2024-TD8
209P/LINEAR,e,21.2840,62.7590,152.4755,2.957433,0.1937901,0.67408461,91.7599,10/31.0/2025,2000,g 17.0,2.0
# From MPEC 2025-UQ3
210P/Christensen,e,10.2872,93.7971,345.9496,3.160508,0.1754158,0.83407203,356.0134,10/31.0/2025,2000,g 13.5,4.0
# From MPEC 2024-JU4
211P/Hill,e,18.9261,117.1001,4.3640,3.548797,0.1474288,0.34456371,165.3563,10/31.0/2025,2000,g 12.5,4.0
# From MPEC 2024-GJ3
212P/NEAT,e,22.1495,97.9710,14.0756,3.903765,0.1277846,0.58677011,70.7693,10/31.0/2025,2000,g 17.0,2.0
# From MPC184418
213P/VanNess,e,10.5196,310.6103,7.0514,3.361234,0.1599396,0.41142309,114.3616,10/31.0/2025,2000,g 10.5,4.0
# From MPEC 2025-GB9
213P-B/Van Ness,e,10.5189,310.6071,7.0691,3.361082,0.1599504,0.41130290,114.3900,10/31.0/2025,2000,g 17.0,4.0
# From MPC 76570
